{
  "norad_id": 61874,
  "name": "STARLINK-11402 [DTC]",
  "history": [
    {
      "epoch": "2026-03-28T18:00:05.565024Z",
      "apogee_km": 360.4158550141574,
      "perigee_km": 358.88017905307515,
      "latitude_deg": 1.5219608415107067e-05,
      "longitude_deg": 166.47499065324507,
      "height_km": 361.01968885868104,
      "semi_major_axis_km": 6737.785017033616,
      "eccentricity": 0.00011396,
      "inclination_deg": 53.1586,
      "raan_deg": 262.6642,
      "arg_perigee_deg": 126.6108,
      "mean_anomaly_deg": 233.5015,
      "mean_motion_rev_day": 15.69737514
    },
    {
      "epoch": "2026-03-29T04:41:52.975392Z",
      "apogee_km": 359.7894323360997,
      "perigee_km": 359.6821654011419,
      "latitude_deg": 3.3817258491084624e-06,
      "longitude_deg": 3.392548872131927,
      "height_km": 360.6950028155449,
      "semi_major_axis_km": 6737.8727988686205,
      "eccentricity": 7.96e-06,
      "inclination_deg": 53.1578,
      "raan_deg": 260.4686,
      "arg_perigee_deg": 145.9617,
      "mean_anomaly_deg": 214.1406,
      "mean_motion_rev_day": 15.69706838
    },
    {
      "epoch": "2026-03-30T11:15:34.073568Z",
      "apogee_km": 360.7790308724798,
      "perigee_km": 358.6733138738491,
      "latitude_deg": 1.2545371753242733e-05,
      "longitude_deg": -102.5606985128081,
      "height_km": 360.8342296543563,
      "semi_major_axis_km": 6737.863172373164,
      "eccentricity": 0.00015626,
      "inclination_deg": 53.1574,
      "raan_deg": 254.1917,
      "arg_perigee_deg": 100.6893,
      "mean_anomaly_deg": 259.4301,
      "mean_motion_rev_day": 15.69710202
    },
    {
      "epoch": "2026-03-30T17:22:18.454944Z",
      "apogee_km": 360.82958851038256,
      "perigee_km": 358.64934644303685,
      "latitude_deg": 2.20070462961549e-05,
      "longitude_deg": 164.2471620331443,
      "height_km": 360.7926423333719,
      "semi_major_axis_km": 6737.87646747671,
      "eccentricity": 0.00016179,
      "inclination_deg": 53.1575,
      "raan_deg": 252.9355,
      "arg_perigee_deg": 97.4048,
      "mean_anomaly_deg": 262.7154,
      "mean_motion_rev_day": 15.69705556
    },
    {
      "epoch": "2026-03-31T10:10:49.914912Z",
      "apogee_km": 360.16913175333775,
      "perigee_km": 359.3022370537619,
      "latitude_deg": -5.991425931600887e-05,
      "longitude_deg": -92.02819166267297,
      "height_km": 360.4448530672525,
      "semi_major_axis_km": 6737.872684403549,
      "eccentricity": 6.433e-05,
      "inclination_deg": 53.1584,
      "raan_deg": 249.4816,
      "arg_perigee_deg": 61.7703,
      "mean_anomaly_deg": 298.3379,
      "mean_motion_rev_day": 15.69706878
    },
    {
      "epoch": "2026-04-01T10:37:46.228224Z",
      "apogee_km": 360.0419654511934,
      "perigee_km": 359.40186885406365,
      "latitude_deg": -3.7599454861005534e-05,
      "longitude_deg": -104.78999624502254,
      "height_km": 360.6248592566904,
      "semi_major_axis_km": 6737.858917152628,
      "eccentricity": 4.75e-05,
      "inclination_deg": 53.159,
      "raan_deg": 244.4585,
      "arg_perigee_deg": 272.2497,
      "mean_anomaly_deg": 87.8466,
      "mean_motion_rev_day": 15.69711689
    },
    {
      "epoch": "2026-04-02T18:43:06.984480Z",
      "apogee_km": 359.9984448514042,
      "perigee_km": 359.35781338892775,
      "latitude_deg": 2.3027485851812617e-05,
      "longitude_deg": 125.96551328657499,
      "height_km": 360.303390686508,
      "semi_major_axis_km": 6737.815129120166,
      "eccentricity": 4.754e-05,
      "inclination_deg": 53.1605,
      "raan_deg": 237.8683,
      "arg_perigee_deg": 334.9124,
      "mean_anomaly_deg": 25.1871,
      "mean_motion_rev_day": 15.69726991
    }
  ]
}